{"type": "FeatureCollection", "features": [ {"type": "Feature", "properties": {"norad_id": 33153, "name": "INTELSAT 25 (IS-25)", "group": "intelsat", "lat": 2.064304142308277, "lon": -166.4468537900321, "alt_km": 35779.690265769445, "timestamp": "2025-12-09T09:46:47.314753+00:00", "meta": {"OBJECT_NAME": "INTELSAT 25 (IS-25)", "OBJECT_ID": "2008-034A", "EPOCH": "2025-12-09T03:09:01.481760", "MEAN_MOTION": 1.00270351, "ECCENTRICITY": 0.0005407, "INCLINATION": 2.2185, "RA_OF_ASC_NODE": 82.6867, "ARG_OF_PERICENTER": 184.3162, "MEAN_ANOMALY": 186.8838, "EPHEMERIS_TYPE": 0, "CLASSIFICATION_TYPE": "U", "NORAD_CAT_ID": 33153, "ELEMENT_SET_NO": 999, "REV_AT_EPOCH": 6379, "BSTAR": 0, "MEAN_MOTION_DOT": -2.22e-06, "MEAN_MOTION_DDOT": 0}, "tle": {"line1": "1 33153U 08034A   25343.13126715 -.00000222  00000+0  00000+0 0  9998", "line2": "2 33153   2.2185  82.6867 0005407 184.3162 186.8838  1.00270351 63799"}}, "geometry": {"type": "Point", "coordinates": [-166.4468537900321, 2.064304142308277]}}, {"type": "Feature", "properties": {"norad_id": 33376, "name": "GALAXY 19 (G-19)", "group": "intelsat", "lat": 0.009045570209032358, "lon": 128.06171025727062, "alt_km": 35798.09541894268, "timestamp": "2025-12-09T09:46:47.314765+00:00", "meta": {"OBJECT_NAME": "GALAXY 19 (G-19)", "OBJECT_ID": "2008-045A", "EPOCH": "2025-12-08T21:42:09.950112", "MEAN_MOTION": 1.00269843, "ECCENTRICITY": 0.00033779, "INCLINATION": 0.0176, "RA_OF_ASC_NODE": 311.8736, "ARG_OF_PERICENTER": 319.5286, "MEAN_ANOMALY": 35.0381, "EPHEMERIS_TYPE": 0, "CLASSIFICATION_TYPE": "U", "NORAD_CAT_ID": 33376, "ELEMENT_SET_NO": 999, "REV_AT_EPOCH": 6299, "BSTAR": 0, "MEAN_MOTION_DOT": -1.37e-06, "MEAN_MOTION_DDOT": 0}, "tle": {"line1": "1 33376U 08045A   25342.90428183 -.00000137  00000+0  00000+0 0  9990", "line2": "2 33376   0.0176 311.8736 0003377 319.5286  35.0381  1.00269843 62990"}}, "geometry": {"type": "Point", "coordinates": [128.06171025727062, 0.009045570209032358]}}, {"type": "Feature", "properties": {"norad_id": 35493, "name": "FM-5", "group": "intelsat", "lat": -0.0055109046559647075, "lon": 138.94870233288836, "alt_km": 35783.61739913085, "timestamp": "2025-12-09T09:46:47.314777+00:00", "meta": {"OBJECT_NAME": "FM-5", "OBJECT_ID": "2009-034A", "EPOCH": "2025-12-08T23:27:59.810976", "MEAN_MOTION": 1.0027183, "ECCENTRICITY": 7.69e-05, "INCLINATION": 0.0205, "RA_OF_ASC_NODE": 287.8987, "ARG_OF_PERICENTER": 250.7085, "MEAN_ANOMALY": 165.2291, "EPHEMERIS_TYPE": 0, "CLASSIFICATION_TYPE": "U", "NORAD_CAT_ID": 35493, "ELEMENT_SET_NO": 999, "REV_AT_EPOCH": 4473, "BSTAR": 0, "MEAN_MOTION_DOT": -1.98e-06, "MEAN_MOTION_DDOT": 0}, "tle": {"line1": "1 35493U 09034A   25342.97777559 -.00000198  00000+0  00000+0 0  9999", "line2": "2 35493   0.0205 287.8987 0000769 250.7085 165.2291  1.00271830 44737"}}, "geometry": {"type": "Point", "coordinates": [138.94870233288836, -0.0055109046559647075]}}, {"type": "Feature", "properties": {"norad_id": 36097, "name": "INTELSAT 14 (IS-14)", "group": "intelsat", "lat": -0.009462066619275997, "lon": -179.9319937881182, "alt_km": 35785.51886580062, "timestamp": "2025-12-09T09:46:47.314790+00:00", "meta": {"OBJECT_NAME": "INTELSAT 14 (IS-14)", "OBJECT_ID": "2009-064A", "EPOCH": "2025-12-09T03:05:09.354336", "MEAN_MOTION": 1.00270456, "ECCENTRICITY": 0.0002682, "INCLINATION": 0.01, "RA_OF_ASC_NODE": 342.3099, "ARG_OF_PERICENTER": 282.9219, "MEAN_ANOMALY": 174.1888, "EPHEMERIS_TYPE": 0, "CLASSIFICATION_TYPE": "U", "NORAD_CAT_ID": 36097, "ELEMENT_SET_NO": 999, "REV_AT_EPOCH": 5869, "BSTAR": 0, "MEAN_MOTION_DOT": -2.71e-06, "MEAN_MOTION_DDOT": 0}, "tle": {"line1": "1 36097U 09064A   25343.12858049 -.00000271  00000+0  00000+0 0  9997", "line2": "2 36097   0.0100 342.3099 0002682 282.9219 174.1888  1.00270456 58699"}}, "geometry": {"type": "Point", "coordinates": [-179.9319937881182, -0.009462066619275997]}}, {"type": "Feature", "properties": {"norad_id": 36106, "name": "INTELSAT 15 (IS-15)", "group": "intelsat", "lat": 0.004417825049884734, "lon": -49.73438826571201, "alt_km": 35777.662745820075, "timestamp": "2025-12-09T09:46:47.314802+00:00", "meta": {"OBJECT_NAME": "INTELSAT 15 (IS-15)", "OBJECT_ID": "2009-067A", "EPOCH": "2025-12-09T02:24:38.646720", "MEAN_MOTION": 1.00273106, "ECCENTRICITY": 0.0002572, "INCLINATION": 0.0293, "RA_OF_ASC_NODE": 285.0945, "ARG_OF_PERICENTER": 343.0358, "MEAN_ANOMALY": 291.2788, "EPHEMERIS_TYPE": 0, "CLASSIFICATION_TYPE": "U", "NORAD_CAT_ID": 36106, "ELEMENT_SET_NO": 999, "REV_AT_EPOCH": 3932, "BSTAR": 0, "MEAN_MOTION_DOT": -1.83e-06, "MEAN_MOTION_DDOT": 0}, "tle": {"line1": "1 36106U 09067A   25343.10044730 -.00000183  00000+0  00000+0 0  9995", "line2": "2 36106   0.0293 285.0945 0002572 343.0358 291.2788  1.00273106 39321"}}, "geometry": {"type": "Point", "coordinates": [-49.73438826571201, 0.004417825049884734]}}, {"type": "Feature", "properties": {"norad_id": 36131, "name": "DIRECTV 12", "group": "intelsat", "lat": 0.018012264972352497, "lon": 122.36961577733462, "alt_km": 35787.66735263538, "timestamp": "2025-12-09T09:46:47.314815+00:00", "meta": {"OBJECT_NAME": "DIRECTV 12", "OBJECT_ID": "2009-075A", "EPOCH": "2025-12-08T21:40:32.604960", "MEAN_MOTION": 1.00270047, "ECCENTRICITY": 3.553e-05, "INCLINATION": 0.0409, "RA_OF_ASC_NODE": 138.4209, "ARG_OF_PERICENTER": 206.7884, "MEAN_ANOMALY": 315.1057, "EPHEMERIS_TYPE": 0, "CLASSIFICATION_TYPE": "U", "NORAD_CAT_ID": 36131, "ELEMENT_SET_NO": 999, "REV_AT_EPOCH": 4464, "BSTAR": 0, "MEAN_MOTION_DOT": -1.01e-06, "MEAN_MOTION_DDOT": 0}, "tle": {"line1": "1 36131U 09075A   25342.90315515 -.00000101  00000+0  00000+0 0  9991", "line2": "2 36131   0.0409 138.4209 0000355 206.7884 315.1057  1.00270047 44645"}}, "geometry": {"type": "Point", "coordinates": [122.36961577733462, 0.018012264972352497]}}, {"type": "Feature", "properties": {"norad_id": 36397, "name": "INTELSAT 16 (IS-16)", "group": "intelsat", "lat": -0.004317910176753842, "lon": 148.86709255951544, "alt_km": 35790.372788290144, "timestamp": "2025-12-09T09:46:47.314827+00:00", "meta": {"OBJECT_NAME": "INTELSAT 16 (IS-16)", "OBJECT_ID": "2010-006A", "EPOCH": "2025-12-09T03:56:38.639904", "MEAN_MOTION": 1.00270336, "ECCENTRICITY": 0.0002298, "INCLINATION": 0.0156, "RA_OF_ASC_NODE": 308.0458, "ARG_OF_PERICENTER": 314.2167, "MEAN_ANOMALY": 158.8579, "EPHEMERIS_TYPE": 0, "CLASSIFICATION_TYPE": "U", "NORAD_CAT_ID": 36397, "ELEMENT_SET_NO": 999, "REV_AT_EPOCH": 5774, "BSTAR": 0, "MEAN_MOTION_DOT": -2.42e-06, "MEAN_MOTION_DDOT": 0}, "tle": {"line1": "1 36397U 10006A   25343.16433611 -.00000242  00000+0  00000+0 0  9994", "line2": "2 36397   0.0156 308.0458 0002298 314.2167 158.8579  1.00270336 57743"}}, "geometry": {"type": "Point", "coordinates": [148.86709255951544, -0.004317910176753842]}}, {"type": "Feature", "properties": {"norad_id": 37185, "name": "XM-5", "group": "intelsat", "lat": -0.0037192509277351833, "lon": 109.88560745784821, "alt_km": 35781.60713053129, "timestamp": "2025-12-09T09:46:47.314839+00:00", "meta": {"OBJECT_NAME": "XM-5", "OBJECT_ID": "2010-053A", "EPOCH": "2025-12-09T01:02:28.260960", "MEAN_MOTION": 1.00269679, "ECCENTRICITY": 0.000175, "INCLINATION": 0.0636, "RA_OF_ASC_NODE": 272.6513, "ARG_OF_PERICENTER": 243.8809, "MEAN_ANOMALY": 181.9359, "EPHEMERIS_TYPE": 0, "CLASSIFICATION_TYPE": "U", "NORAD_CAT_ID": 37185, "ELEMENT_SET_NO": 999, "REV_AT_EPOCH": 5557, "BSTAR": 0, "MEAN_MOTION_DOT": -2.1e-07, "MEAN_MOTION_DDOT": 0}, "tle": {"line1": "1 37185U 10053A   25343.04338265 -.00000021  00000+0  00000+0 0  9993", "line2": "2 37185   0.0636 272.6513 0001750 243.8809 181.9359  1.00269679 55572"}}, "geometry": {"type": "Point", "coordinates": [109.88560745784821, -0.0037192509277351833]}}, {"type": "Feature", "properties": {"norad_id": 37238, "name": "INTELSAT 17 (IS-17)", "group": "intelsat", "lat": -0.007995192827032063, "lon": -68.8798553964976, "alt_km": 35776.48508462364, "timestamp": "2025-12-09T09:46:47.314852+00:00", "meta": {"OBJECT_NAME": "INTELSAT 17 (IS-17)", "OBJECT_ID": "2010-065B", "EPOCH": "2025-12-09T03:36:51.318144", "MEAN_MOTION": 1.00273452, "ECCENTRICITY": 0.000249, "INCLINATION": 0.0157, "RA_OF_ASC_NODE": 282.9956, "ARG_OF_PERICENTER": 338.0088, "MEAN_ANOMALY": 297.3668, "EPHEMERIS_TYPE": 0, "CLASSIFICATION_TYPE": "U", "NORAD_CAT_ID": 37238, "ELEMENT_SET_NO": 999, "REV_AT_EPOCH": 5134, "BSTAR": 0, "MEAN_MOTION_DOT": 0, "MEAN_MOTION_DDOT": 0}, "tle": {"line1": "1 37238U 10065B   25343.15059396  .00000000  00000+0  00000+0 0  9998", "line2": "2 37238   0.0157 282.9956 0002490 338.0088 297.3668  1.00273452 51342"}}, "geometry": {"type": "Point", "coordinates": [-68.8798553964976, -0.007995192827032063]}}, {"type": "Feature", "properties": {"norad_id": 37392, "name": "INTELSAT 28 (IS-28)", "group": "intelsat", "lat": 1.2396132568622735, "lon": -166.64506296671803, "alt_km": 35780.02334977354, "timestamp": "2025-12-09T09:46:47.314864+00:00", "meta": {"OBJECT_NAME": "INTELSAT 28 (IS-28)", "OBJECT_ID": "2011-016A", "EPOCH": "2025-12-09T03:09:01.481760", "MEAN_MOTION": 1.00272258, "ECCENTRICITY": 0.0003998, "INCLINATION": 1.3153, "RA_OF_ASC_NODE": 85.0987, "ARG_OF_PERICENTER": 178.3056, "MEAN_ANOMALY": 190.2771, "EPHEMERIS_TYPE": 0, "CLASSIFICATION_TYPE": "U", "NORAD_CAT_ID": 37392, "ELEMENT_SET_NO": 999, "REV_AT_EPOCH": 5138, "BSTAR": 0, "MEAN_MOTION_DOT": -2.23e-06, "MEAN_MOTION_DDOT": 0}, "tle": {"line1": "1 37392U 11016A   25343.13126715 -.00000223  00000+0  00000+0 0  9992", "line2": "2 37392   1.3153  85.0987 0003998 178.3056 190.2771  1.00272258 51386"}}, "geometry": {"type": "Point", "coordinates": [-166.64506296671803, 1.2396132568622735]}}]}